{"type": "FeatureCollection", "features": [ {"type": "Feature", "properties": {"norad_id": 66546, "name": "SHIJIAN-30B", "group": "last-30-days", "lat": -30.170584643788345, "lon": -44.852879373775565, "alt_km": 517.557823948674, "timestamp": "2025-12-10T16:57:10.415972+00:00", "meta": {"OBJECT_NAME": "SHIJIAN-30B", "OBJECT_ID": "2025-266B", "EPOCH": "2025-12-10T12:22:44.526432", "MEAN_MOTION": 15.15324418, "ECCENTRICITY": 0.0010395, "INCLINATION": 51.797, "RA_OF_ASC_NODE": 343.2869, "ARG_OF_PERICENTER": 351.0951, "MEAN_ANOMALY": 8.9839, "EPHEMERIS_TYPE": 0, "CLASSIFICATION_TYPE": "U", "NORAD_CAT_ID": 66546, "ELEMENT_SET_NO": 999, "REV_AT_EPOCH": 324, "BSTAR": 0.00081569, "MEAN_MOTION_DOT": 0.00015307, "MEAN_MOTION_DDOT": 0}, "tle": {"line1": "1 66546U 25266B   25344.51579313  .00015307  00000+0  81569-3 0  9997", "line2": "2 66546  51.7970 343.2869 0010395 351.0951   8.9839 15.15324418  3245"}}, "geometry": {"type": "Point", "coordinates": [-44.852879373775565, -30.170584643788345]}}, {"type": "Feature", "properties": {"norad_id": 66547, "name": "SHIJIAN-30C", "group": "last-30-days", "lat": -32.045043370340146, "lon": -47.134189321379964, "alt_km": 516.3998123948231, "timestamp": "2025-12-10T16:57:10.415983+00:00", "meta": {"OBJECT_NAME": "SHIJIAN-30C", "OBJECT_ID": "2025-266C", "EPOCH": "2025-12-10T12:23:28.467744", "MEAN_MOTION": 15.15435792, "ECCENTRICITY": 0.0011375, "INCLINATION": 51.7978, "RA_OF_ASC_NODE": 343.2921, "ARG_OF_PERICENTER": 342.8969, "MEAN_ANOMALY": 17.1622, "EPHEMERIS_TYPE": 0, "CLASSIFICATION_TYPE": "U", "NORAD_CAT_ID": 66547, "ELEMENT_SET_NO": 999, "REV_AT_EPOCH": 324, "BSTAR": 0.00085347, "MEAN_MOTION_DOT": 0.00016087, "MEAN_MOTION_DDOT": 0}, "tle": {"line1": "1 66547U 25266C   25344.51630171  .00016087  00000+0  85347-3 0  9992", "line2": "2 66547  51.7978 343.2921 0011375 342.8969  17.1622 15.15435792  3249"}}, "geometry": {"type": "Point", "coordinates": [-47.134189321379964, -32.045043370340146]}}, {"type": "Feature", "properties": {"norad_id": 66548, "name": "CZ-2C R/B", "group": "last-30-days", "lat": -5.515381097874548, "lon": -23.35471566735188, "alt_km": 534.1021636695241, "timestamp": "2025-12-10T16:57:10.415993+00:00", "meta": {"OBJECT_NAME": "CZ-2C R/B", "OBJECT_ID": "2025-266D", "EPOCH": "2025-12-10T10:42:49.644288", "MEAN_MOTION": 15.30100759, "ECCENTRICITY": 0.0084034, "INCLINATION": 52.0564, "RA_OF_ASC_NODE": 342.2049, "ARG_OF_PERICENTER": 165.1673, "MEAN_ANOMALY": 195.1807, "EPHEMERIS_TYPE": 0, "CLASSIFICATION_TYPE": "U", "NORAD_CAT_ID": 66548, "ELEMENT_SET_NO": 999, "REV_AT_EPOCH": 326, "BSTAR": 0.00045588, "MEAN_MOTION_DOT": 0.00014637, "MEAN_MOTION_DDOT": 0}, "tle": {"line1": "1 66548U 25266D   25344.44640792  .00014637  00000+0  45588-3 0  9997", "line2": "2 66548  52.0564 342.2049 0084034 165.1673 195.1807 15.30100759  3268"}}, "geometry": {"type": "Point", "coordinates": [-23.35471566735188, -5.515381097874548]}}, {"type": "Feature", "properties": {"norad_id": 66549, "name": "SHIJIAN-28", "group": "last-30-days", "lat": -2.6101454050988266, "lon": -99.11247246112977, "alt_km": 32973.89053285657, "timestamp": "2025-12-10T16:57:10.416005+00:00", "meta": {"OBJECT_NAME": "SHIJIAN-28", "OBJECT_ID": "2025-277A", "EPOCH": "2025-12-01T04:36:42.476256", "MEAN_MOTION": 2.08595383, "ECCENTRICITY": 0.6308324, "INCLINATION": 11.5392, "RA_OF_ASC_NODE": 275.706, "ARG_OF_PERICENTER": 179.9335, "MEAN_ANOMALY": 180.3971, "EPHEMERIS_TYPE": 0, "CLASSIFICATION_TYPE": "U", "NORAD_CAT_ID": 66549, "ELEMENT_SET_NO": 999, "REV_AT_EPOCH": 5, "BSTAR": 0, "MEAN_MOTION_DOT": -3.3e-07, "MEAN_MOTION_DDOT": 0}, "tle": {"line1": "1 66549U 25277A   25335.19215829 -.00000033  00000+0  00000+0 0  9993", "line2": "2 66549  11.5392 275.7060 6308324 179.9335 180.3971  2.08595383    50"}}, "geometry": {"type": "Point", "coordinates": [-99.11247246112977, -2.6101454050988266]}}, {"type": "Feature", "properties": {"norad_id": 66550, "name": "CZ-7A R/B", "group": "last-30-days", "lat": -3.232600635637967, "lon": -101.74692603078752, "alt_km": 26594.88929803317, "timestamp": "2025-12-10T16:57:10.416024+00:00", "meta": {"OBJECT_NAME": "CZ-7A R/B", "OBJECT_ID": "2025-277B", "EPOCH": "2025-12-09T05:27:24.418944", "MEAN_MOTION": 2.57975656, "ECCENTRICITY": 0.71041719, "INCLINATION": 14.4001, "RA_OF_ASC_NODE": 271.6446, "ARG_OF_PERICENTER": 185.6905, "MEAN_ANOMALY": 156.7335, "EPHEMERIS_TYPE": 0, "CLASSIFICATION_TYPE": "U", "NORAD_CAT_ID": 66550, "ELEMENT_SET_NO": 999, "REV_AT_EPOCH": 25, "BSTAR": 0.0029500826, "MEAN_MOTION_DOT": 0.01805656, "MEAN_MOTION_DDOT": 5.50612e-07}, "tle": {"line1": "1 66550U 25277B   25343.22736596  .01805656  55061-6  29501-2 0  9995", "line2": "2 66550  14.4001 271.6446 7104171 185.6905 156.7335  2.57975656   258"}}, "geometry": {"type": "Point", "coordinates": [-101.74692603078752, -3.232600635637967]}}, {"type": "Feature", "properties": {"norad_id": 66551, "name": "UNKNOWN", "group": "last-30-days", "lat": 52.06750594573664, "lon": -57.1140206422356, "alt_km": 296.94770254159266, "timestamp": "2025-12-10T16:57:10.416035+00:00", "meta": {"OBJECT_NAME": "UNKNOWN", "OBJECT_ID": "2025-271AE", "EPOCH": "2025-12-02T16:00:03.000096", "MEAN_MOTION": 15.87051116, "ECCENTRICITY": 7.17e-05, "INCLINATION": 53.1571, "RA_OF_ASC_NODE": 236.7807, "ARG_OF_PERICENTER": 110.7411, "MEAN_ANOMALY": 313.9012, "EPHEMERIS_TYPE": 0, "CLASSIFICATION_TYPE": "U", "NORAD_CAT_ID": 66551, "ELEMENT_SET_NO": 999, "REV_AT_EPOCH": 262, "BSTAR": -0.0074303, "MEAN_MOTION_DOT": -0.01709685, "MEAN_MOTION_DDOT": 0}, "tle": {"line1": "1 66551U 25271AE  25336.66670139 -.01709685  00000+0 -74303-2 0  9993", "line2": "2 66551  53.1571 236.7807 0000717 110.7411 313.9012 15.87051116  2624"}}, "geometry": {"type": "Point", "coordinates": [-57.1140206422356, 52.06750594573664]}}, {"type": "Feature", "properties": {"norad_id": 66554, "name": "GLOBAL-33", "group": "last-30-days", "lat": -3.5618744372060425, "lon": 64.76710873306224, "alt_km": 468.94220158277403, "timestamp": "2025-12-10T16:57:10.416045+00:00", "meta": {"OBJECT_NAME": "GLOBAL-33", "OBJECT_ID": "2025-267A", "EPOCH": "2025-12-10T06:01:13.647360", "MEAN_MOTION": 15.31559914, "ECCENTRICITY": 0.00045942, "INCLINATION": 42.0206, "RA_OF_ASC_NODE": 71.3617, "ARG_OF_PERICENTER": 35.1898, "MEAN_ANOMALY": 324.9242, "EPHEMERIS_TYPE": 0, "CLASSIFICATION_TYPE": "U", "NORAD_CAT_ID": 66554, "ELEMENT_SET_NO": 999, "REV_AT_EPOCH": 302, "BSTAR": 0.00062804932, "MEAN_MOTION_DOT": 0.00019358, "MEAN_MOTION_DDOT": 0}, "tle": {"line1": "1 66554U 25267A   25344.25085240  .00019358  00000+0  62805-3 0  9991", "line2": "2 66554  42.0206  71.3617 0004594  35.1898 324.9242 15.31559914  3027"}}, "geometry": {"type": "Point", "coordinates": [64.76710873306224, -3.5618744372060425]}}, {"type": "Feature", "properties": {"norad_id": 66555, "name": "ELECTRON KICK STAGE R/B", "group": "last-30-days", "lat": 31.707938451467104, "lon": 111.92030269373558, "alt_km": 458.3505950971994, "timestamp": "2025-12-10T16:57:10.416058+00:00", "meta": {"OBJECT_NAME": "ELECTRON KICK STAGE R/B", "OBJECT_ID": "2025-267B", "EPOCH": "2025-12-10T07:20:40.150464", "MEAN_MOTION": 15.32621473, "ECCENTRICITY": 0.00066801, "INCLINATION": 42.0194, "RA_OF_ASC_NODE": 70.9094, "ARG_OF_PERICENTER": 33.8132, "MEAN_ANOMALY": 326.313, "EPHEMERIS_TYPE": 0, "CLASSIFICATION_TYPE": "U", "NORAD_CAT_ID": 66555, "ELEMENT_SET_NO": 999, "REV_AT_EPOCH": 303, "BSTAR": 0.0011399935, "MEAN_MOTION_DOT": 0.00036645, "MEAN_MOTION_DDOT": 0}, "tle": {"line1": "1 66555U 25267B   25344.30602026  .00036645  00000+0  11400-2 0  9997", "line2": "2 66555  42.0194  70.9094 0006680  33.8132 326.3130 15.32621473  3036"}}, "geometry": {"type": "Point", "coordinates": [111.92030269373558, 31.707938451467104]}}, {"type": "Feature", "properties": {"norad_id": 66557, "name": "STARLINK-35699", "group": "last-30-days", "lat": -41.11287379640705, "lon": 22.573526113286743, "alt_km": 417.4927314049146, "timestamp": "2025-12-10T16:57:10.416068+00:00", "meta": {"OBJECT_NAME": "STARLINK-35699", "OBJECT_ID": "2025-268A", "EPOCH": "2025-12-10T12:00:02.998944", "MEAN_MOTION": 15.50619898, "ECCENTRICITY": 0.0001257, "INCLINATION": 43.0004, "RA_OF_ASC_NODE": 134.2978, "ARG_OF_PERICENTER": 264.5996, "MEAN_ANOMALY": 276.8897, "EPHEMERIS_TYPE": 0, "CLASSIFICATION_TYPE": "U", "NORAD_CAT_ID": 66557, "ELEMENT_SET_NO": 999, "REV_AT_EPOCH": 430, "BSTAR": -0.0018931, "MEAN_MOTION_DOT": -0.00110014, "MEAN_MOTION_DDOT": 0}, "tle": {"line1": "1 66557U 25268A   25344.50003471 -.00110014  00000+0 -18931-2 0  9992", "line2": "2 66557  43.0004 134.2978 0001257 264.5996 276.8897 15.50619898  4308"}}, "geometry": {"type": "Point", "coordinates": [22.573526113286743, -41.11287379640705]}}, {"type": "Feature", "properties": {"norad_id": 66558, "name": "STARLINK-35695", "group": "last-30-days", "lat": -41.53430182533879, "lon": 24.99575292441715, "alt_km": 417.1053315094432, "timestamp": "2025-12-10T16:57:10.416078+00:00", "meta": {"OBJECT_NAME": "STARLINK-35695", "OBJECT_ID": "2025-268B", "EPOCH": "2025-12-10T12:00:02.998944", "MEAN_MOTION": 15.50539696, "ECCENTRICITY": 0.0001944, "INCLINATION": 43.0003, "RA_OF_ASC_NODE": 134.2935, "ARG_OF_PERICENTER": 263.2758, "MEAN_ANOMALY": 280.1233, "EPHEMERIS_TYPE": 0, "CLASSIFICATION_TYPE": "U", "NORAD_CAT_ID": 66558, "ELEMENT_SET_NO": 999, "REV_AT_EPOCH": 430, "BSTAR": 0.00071374, "MEAN_MOTION_DOT": 0.00041695, "MEAN_MOTION_DDOT": 0}, "tle": {"line1": "1 66558U 25268B   25344.50003471  .00041695  00000+0  71374-3 0  9990", "line2": "2 66558  43.0003 134.2935 0001944 263.2758 280.1233 15.50539696  4305"}}, "geometry": {"type": "Point", "coordinates": [24.99575292441715, -41.53430182533879]}}]}